#aV2011 12 21  0  0   .00000000      96 DD+AD WGS84 FIT  NGA
## 1667 259200.00000000   900.00000000 55916  .0000000000000
+   31     1  2  3  4  5  6  7  8  9 10 11 12 13 14 15 16 17
+         18 19 20 21 22 23 25 26 27 28 29 30 31 32  0  0  0
+          0  0  0  0  0  0  0  0  0  0  0  0  0  0  0  0  0
+          0  0  0  0  0  0  0  0  0  0  0  0  0  0  0  0  0
+          0  0  0  0  0  0  0  0  0  0  0  0  0  0  0  0  0
++         0  0  0  0  0  0  0  0  0  0  0  0  0  0  0  0  0
++         0  0  0  0  0  0  0  0  0  0  0  0  0  0  0  0  0
++         0  0  0  0  0  0  0  0  0  0  0  0  0  0  0  0  0
++         0  0  0  0  0  0  0  0  0  0  0  0  0  0  0  0  0
++         0  0  0  0  0  0  0  0  0  0  0  0  0  0  0  0  0
%c cc cc ccc ccc cccc cccc cccc cccc ccccc ccccc ccccc ccccc
%c cc cc ccc ccc cccc cccc cccc cccc ccccc ccccc ccccc ccccc
%f  0.0000000  0.000000000  0.00000000000  0.000000000000000
%f  0.0000000  0.000000000  0.00000000000  0.000000000000000
%i    0    0    0    0      0      0      0      0         0
%i    0    0    0    0      0      0      0      0         0
/*      NGA, ST. LOUIS,MO.                                  
/*   EPHEMERIS COMPUTED FROM  3 DAYS OF DATA                
/* CCCCCCCCCCCCCCCCCCCCCCCCCCCCCCCCCCCCCCCCCCCCCCCCCCCCCCCCC
/* CCCCCCCCCCCCCCCCCCCCCCCCCCCCCCCCCCCCCCCCCCCCCCCCCCCCCCCCC
*  2011 12 21 18 15   .00000000                                                 
P  1  10802.362790  13546.923913 -20150.355286    151.330424                    
V  1 -25452.839029   2466.092722 -11986.581553       .154210                    
P  2  14112.429854 -13837.706844  17587.448539    371.229752                    
V  2  22532.867374    820.081337 -18018.760146       .016957                    
P  3 -10093.859092  24298.338990   1745.538630    811.507267                    
V  3  -2872.138205  -3984.721584  31143.120897       .052171                    
P  4  24507.865348  -6951.141969   7856.127467     39.944376                    
V  4  10376.825107   2598.064071 -28848.734693       .112233                    
P  5   2363.541023 -19575.817962  17713.210854   -260.763147                    
V  5  13808.891288  17996.280065  18145.028702      -.047959                    
P  6 -14223.010167  21549.611751   5731.002923     17.374421                    
V  6   -395.187962  -8050.141034  30243.280584       .037577                    
P  7  23210.027895   6817.615271  11263.204788     44.763193                    
V  7 -14088.015487   2343.818238  27427.604914       .024064                    
P  8  26839.647415   1426.004700    349.134571       .213665                    
V  8   -415.384439   1151.819027  32149.593071       .000902                    
P  9  -6372.232181 -14271.613342 -22019.622297    126.531889                    
V  9  26525.377047  -2021.293968  -6556.839109       .025370                    
P 10  16378.424063  -1728.141256  20670.852267    -22.933136                    
V 10  13395.731773  23180.374325  -8186.855453      -.012956                    
P 11   4614.096733  16313.412460 -20809.213610   -215.316234                    
V 11 -24782.838835   7730.977950    913.420099      -.036887                    
P 12 -11171.071491 -23805.972791  -4345.783345     41.953721                    
V 12   4644.756966   3594.584971 -31391.107708       .022292                    
P 13  11246.011562   9389.108886  22014.071964    235.043952                    
V 13 -15213.507114  23759.131224  -2425.005854      -.020584                    
P 14 -18465.504049  10308.622923 -15805.168370    186.733704                    
V 14   9019.474783 -18382.126335 -22411.979087       .016264                    
P 15   1358.085957 -23277.631177 -12527.894999    -96.248991                    
V 15   9532.652563 -13171.003247  25692.586748       .008435                    
P 16  -3498.611017  18594.991533  18526.680417   -215.051541                    
V 16 -13134.616508 -19602.677194  17499.412414      -.018763                    
P 17  18285.521579  -8346.130021 -17081.888558    159.273013                    
V 17  -9096.287928  20210.711087 -19674.667675      -.021117                    
P 18 -19188.324278 -14059.357167 -11836.700226    172.959038                    
V 18  -5725.399682 -14690.044752  25622.595563       .018097                    
P 19  -5689.083582  23360.351290 -10899.817670   -217.487982                    
V 19  -9744.225018  10315.675929  27642.074104      -.039202                    
P 20  12917.763211  23000.148252  -3591.992351     58.458567                    
V 20  -5471.555803  -1506.669646 -30601.772824       .007434                    
P 21 -25427.974637  -4718.820009   7731.360959   -192.363942                    
V 21   8986.252688  -3305.604527  28651.881255      -.024611                    
P 22 -17176.909225    803.186118 -20092.967036    143.092881                    
V 22 -12706.881583 -22711.516701   9759.754408      -.000402                    
P 23   5068.768612  18123.612561  18623.468747    248.863420                    
V 23 -12558.934572  20185.359098 -16600.333117      -.033509                    
P 25 -17309.392862 -19406.567923   5478.014046     30.400674                    
V 25  -1735.258905  -7208.616344 -30851.069773       .005117                    
P 26  12118.727003 -23263.044852  -3051.194008   -269.900457                    
V 26   3633.223810  -1464.525885  32243.162666      -.139903                    
P 27    950.899698 -14540.412947 -21540.252650    338.132950                    
V 27  28806.660142  -2150.963859   3050.165714       .038837                    
P 28  17295.444732   3845.046421 -19326.594265     95.232981                    
V 28  11925.788875  22675.820001  14536.798816       .035531                    
P 29 -11293.616180 -10611.625091  21637.260600    268.084751                    
V 29  13815.111545 -23565.888025  -4322.212975       .033968                    
P 30 -10358.828912  11150.767465  21412.485221     15.970602                    
V 30 -17672.013006 -21777.076992   2755.151589      -.119217                    
P 31 -22805.012499   8303.282889  11256.560991    185.435660                    
V 31 -13920.365718  -1214.437373 -27598.125119       .049219                    
P 32   5267.448087  24419.470330  -9437.882340   -380.675882                    
V 32  -7841.019277  -9646.791029 -28162.505429      -.058867                    
EOF
